OBJECT_NAME,OBJECT_ID,EPOCH,MEAN_MOTION,ECCENTRICITY,INCLINATION,RA_OF_ASC_NODE,ARG_OF_PERICENTER,MEAN_ANOMALY,EPHEMERIS_TYPE,CLASSIFICATION_TYPE,NORAD_CAT_ID,ELEMENT_SET_NO,REV_AT_EPOCH,BSTAR,MEAN_MOTION_DOT,MEAN_MOTION_DDOT
CUBEBUG-2 (LO-74),2013-066AA,2026-06-16T03:00:32.772384,14.93754109,.00584561,97.8908,116.0990,32.4816,327.9979,0,U,39440,999,67683,.37024098E-3,.3994E-4,0
FUNCUBE-1 (AO-73),2013-066AE,2026-06-16T04:40:29.138016,15.09480360,.00355598,97.8274,138.6199,204.3953,155.5593,0,U,39444,999,67951,.35517351E-3,.5705E-4,0
UWE-3,2013-066AG,2026-06-15T09:51:46.833408,14.97011844,.00478551,97.8693,122.4726,327.0614,32.7628,0,U,39446,999,67731,.31228687E-3,.3615E-4,0
UNISAT-6,2014-033C,2026-06-16T07:50:07.806336,14.88242939,.00462775,97.7877,320.0533,72.0524,288.5730,0,U,40012,999,64603,.2449184E-3,.225E-4,0
DUCHIFAT-1,2014-033M,2026-06-15T10:08:30.060960,15.64281009,.000328,98.0462,225.3358,119.3803,240.7782,0,U,40021,999,65547,.90896671E-3,.87303E-3,0
QB50P1,2014-033R,2026-06-16T07:02:20.282784,15.18249784,.00077186,98.0960,178.3767,218.6881,141.3799,0,U,40025,999,65289,.32293011E-3,.6542E-4,0
LILACSAT-2,2015-049K,2026-06-16T07:18:52.915104,15.51420206,.00054607,97.4642,204.1128,249.1655,110.9012,0,U,40908,999,59561,.24157934E-3,.1415E-3,0
FOX-1A (AO-85),2015-058D,2026-06-15T17:49:35.014368,14.90963979,.01303689,64.7762,283.4725,57.1508,304.2075,0,U,40967,999,11335,.19289249E-3,.2067E-4,0
CAS-2T & KS-1Q,2016-066G,2026-06-16T04:50:27.626496,14.44691734,.03427532,98.3821,242.9493,132.4604,230.6111,0,U,41847,999,50465,.22416632E-3,.155E-4,0
RADFXSAT (FOX-1B),2017-073E,2026-06-16T03:35:28.061376,15.12705652,.01496923,97.4703,34.3858,332.8831,26.4636,0,U,43017,999,46523,.28659385E-3,.6534E-4,0
DIWATA-2B,2018-084H,2026-06-16T07:16:13.473408,15.00447809,.0012428,98.1175,3.4727,172.9474,187.1925,0,U,43678,999,41608,.15583337E-3,.1897E-4,0
ES'HAIL 2,2018-090A,2026-06-16T02:52:15.491136,1.00270088,.00015936,0.0173,5.4784,118.9306,208.8329,0,U,43700,999,2766,0,.144E-5,0
FOX-1CLIFF (AO-95),2018-099N,2026-06-16T03:50:31.604928,15.26694491,.00080851,97.4381,227.4098,1.8957,358.2311,0,U,43770,999,41306,.34028274E-3,.8871E-4,0
ITASAT,2018-099AE,2026-06-16T02:23:13.123680,15.19046010,.00122123,97.4027,218.6326,4.0961,356.0371,0,U,43786,999,41274,.28803335E-3,.5979E-4,0
JY1SAT (JO-97),2018-099AX,2026-06-16T02:48:33.228864,15.33625681,.00042934,97.4130,229.9474,267.4350,92.6401,0,U,43803,999,41346,.44350037E-3,.14353E-3,0
UWE-4,2018-111E,2026-06-16T01:12:12.490848,15.46065532,.00057183,97.5856,95.3888,347.9262,12.1848,0,U,43880,999,41060,.53861064E-3,.26306E-3,0
TIANYAN 01,2019-093C,2026-06-16T05:41:16.786176,14.86520887,.0015129,97.7539,239.4921,89.7707,270.5243,0,U,44881,999,35127,.15222403E-3,.1296E-4,0
RS-44 & BREEZE-KM R/B,2019-096E,2026-06-16T05:21:39.990528,12.79748866,.02181248,82.5218,340.3455,146.4115,215.1037,0,U,44909,999,30222,.2802261E-5,.13E-6,0
SALSAT,2020-068K,2026-06-15T23:14:07.134432,15.29785416,.00081144,97.8844,169.9584,313.3675,46.6887,0,U,46495,999,31517,.23912148E-3,.682E-4,0
XW-3 (CAS-9),2021-131B,2026-06-16T06:59:02.404320,14.41357076,.000537,98.4987,259.6853,98.8882,261.2915,0,U,50466,999,23498,.15581239E-3,.46E-5,0
GREENCUBE (IO-117),2022-080E,2026-06-13T07:02:28.697280,6.42583230,.00089108,70.1444,299.5995,290.4576,69.5127,0,U,53109,999,9181,0,-.3E-7,0
UMKA 1 (RS40S),2023-091G,2026-06-16T07:18:17.028864,15.20810830,.00142244,97.5050,226.0049,120.4106,239.8537,0,U,57172,999,16387,.26222581E-3,.5728E-4,0
CUBESX-HSE 3 (RS42S),2023-091N,2026-06-16T06:12:52.580160,15.31196382,.00120456,97.5094,232.8343,97.6606,262.6004,0,U,57178,999,16428,.38788511E-3,.1164E-3,0
MONITOR-3 (RS58S),2023-091Q,2026-06-16T06:45:11.571552,15.27827556,.00131163,97.5085,230.7206,103.6582,256.6118,0,U,57180,999,16415,.33100855E-3,.8942E-4,0
MONITOR-4 (RS57S),2023-091S,2026-06-16T04:40:48.085536,15.27910857,.00131097,97.5079,230.6048,104.2135,256.0562,0,U,57182,999,16414,.33504838E-3,.9076E-4,0
MONITOR-2 (RS39S),2023-091U,2026-06-16T06:12:25.671744,15.18903550,.00127128,97.5073,225.5475,113.8567,246.4001,0,U,57184,999,16381,.20982024E-3,.4318E-4,0
SVYATOBOR 1 (RS60S),2023-091X,2026-06-16T06:32:48.975648,15.26602729,.0010884,97.5091,231.0847,97.0602,263.1875,0,U,57187,999,16417,.29445879E-3,.7649E-4,0
VIZARD-METEO (RS38S),2023-091Z,2026-06-16T07:13:02.537184,15.36003143,.00083198,97.5094,236.7677,80.4667,279.7516,0,U,57189,999,16455,.39486675E-3,.13783E-3,0
POLYTECH-UNIVERSE 3 (RS46S),2023-091AB,2026-06-16T06:51:46.541376,15.19106444,.00168046,97.5048,225.0792,129.6852,230.5867,0,U,57191,999,16381,.2093652E-3,.434E-4,0
UTMN 2 (RS27S),2023-091AP,2026-06-16T03:30:49.468896,15.32031789,.00093107,97.5090,234.3528,86.9005,273.3302,0,U,57203,999,16438,.3712738E-3,.11422E-3,0
